{
  "type": "FeatureCollection",
  "features": [
    {
      "type": "Feature",
      "properties": {
        "norad_id": 50032,
        "name": "COSMOS 1408 DEB",
        "group": "cosmos-1408-debris",
        "lat": -8.821337935746577,
        "lon": -112.37961692936409,
        "alt_km": 427.4585138974244,
        "timestamp": "2025-12-04T23:34:05.993049+00:00",
        "meta_object_name": "COSMOS 1408 DEB",
        "meta_object_id": "1982-092RU",
        "meta_epoch": "2025-12-04T16:32:15.185760",
        "meta_mean_motion": 15.455691,
        "meta_eccentricity": 0.0014735,
        "meta_inclination": 82.5654,
        "meta_ra_of_asc_node": 66.7593,
        "meta_arg_of_pericenter": 240.0734,
        "meta_mean_anomaly": 119.9052,
        "meta_ephemeris_type": 0,
        "meta_classification_type": "U",
        "meta_norad_cat_id": 50032,
        "meta_element_set_no": 999,
        "meta_rev_at_epoch": 22479,
        "meta_bstar": 0.00021211,
        "meta_mean_motion_dot": 0.00010274,
        "meta_mean_motion_ddot": 0,
        "tle_line1": "1 50032U 82092RU  25338.68906465  .00010274  00000+0  21211-3 0  9999",
        "tle_line2": "2 50032  82.5654  66.7593 0014735 240.0734 119.9052 15.45569100224795"
      },
      "geometry": {
        "type": "Point",
        "coordinates": [
          -112.37961692936409,
          -8.821337935746577
        ]
      }
    },
    {
      "type": "Feature",
      "properties": {
        "norad_id": 50058,
        "name": "COSMOS 1408 DEB",
        "group": "cosmos-1408-debris",
        "lat": -64.57608170900323,
        "lon": -86.70644889014093,
        "alt_km": 390.3607204233631,
        "timestamp": "2025-12-04T23:34:05.993071+00:00",
        "meta_object_name": "COSMOS 1408 DEB",
        "meta_object_id": "1982-092SW",
        "meta_epoch": "2025-12-04T07:09:39.474720",
        "meta_mean_motion": 15.63350029,
        "meta_eccentricity": 0.0016261,
        "meta_inclination": 82.6139,
        "meta_ra_of_asc_node": 78.171,
        "meta_arg_of_pericenter": 128.8171,
        "meta_mean_anomaly": 231.4542,
        "meta_ephemeris_type": 0,
        "meta_classification_type": "U",
        "meta_norad_cat_id": 50058,
        "meta_element_set_no": 999,
        "meta_rev_at_epoch": 22672,
        "meta_bstar": 0.00063989,
        "meta_mean_motion_dot": 0.00059517,
        "meta_mean_motion_ddot": 0,
        "tle_line1": "1 50058U 82092SW  25338.29837355  .00059517  00000+0  63989-3 0  9996",
        "tle_line2": "2 50058  82.6139  78.1710 0016261 128.8171 231.4542 15.63350029226721"
      },
      "geometry": {
        "type": "Point",
        "coordinates": [
          -86.70644889014093,
          -64.57608170900323
        ]
      }
    },
    {
      "type": "Feature",
      "properties": {
        "norad_id": 50404,
        "name": "COSMOS 1408 DEB",
        "group": "cosmos-1408-debris",
        "lat": -26.67649862850652,
        "lon": -140.98013503592335,
        "alt_km": 569.5812323158025,
        "timestamp": "2025-12-04T23:34:05.993085+00:00",
        "meta_object_name": "COSMOS 1408 DEB",
        "meta_object_id": "1982-092ADS",
        "meta_epoch": "2025-12-04T03:02:32.219520",
        "meta_mean_motion": 15.11972911,
        "meta_eccentricity": 0.01759389,
        "meta_inclination": 82.207,
        "meta_ra_of_asc_node": 223.8385,
        "meta_arg_of_pericenter": 228.6918,
        "meta_mean_anomaly": 129.9057,
        "meta_ephemeris_type": 0,
        "meta_classification_type": "U",
        "meta_norad_cat_id": 50404,
        "meta_element_set_no": 999,
        "meta_rev_at_epoch": 21063,
        "meta_bstar": 0.0052613218,
        "meta_mean_motion_dot": 0.00133611,
        "meta_mean_motion_ddot": 0,
        "tle_line1": "1 50404U 82092ADS 25338.12676180  .00133611  00000+0  52613-2 0  9999",
        "tle_line2": "2 50404  82.2070 223.8385 0175938 228.6918 129.9057 15.11972911210636"
      },
      "geometry": {
        "type": "Point",
        "coordinates": [
          -140.98013503592335,
          -26.67649862850652
        ]
      }
    },
    {
      "type": "Feature",
      "properties": {
        "norad_id": 50621,
        "name": "COSMOS 1408 DEB",
        "group": "cosmos-1408-debris",
        "lat": 70.82880298712917,
        "lon": -119.79249180579791,
        "alt_km": 386.53203247250804,
        "timestamp": "2025-12-04T23:34:05.993096+00:00",
        "meta_object_name": "COSMOS 1408 DEB",
        "meta_object_id": "1982-092ALR",
        "meta_epoch": "2025-12-04T07:40:18.152256",
        "meta_mean_motion": 15.55994248,
        "meta_eccentricity": 0.0028866,
        "meta_inclination": 82.5706,
        "meta_ra_of_asc_node": 82.9412,
        "meta_arg_of_pericenter": 183.2784,
        "meta_mean_anomaly": 176.8286,
        "meta_ephemeris_type": 0,
        "meta_classification_type": "U",
        "meta_norad_cat_id": 50621,
        "meta_element_set_no": 999,
        "meta_rev_at_epoch": 22119,
        "meta_bstar": 0.00073704,
        "meta_mean_motion_dot": 0.00052478,
        "meta_mean_motion_ddot": 0,
        "tle_line1": "1 50621U 82092ALR 25338.31965454  .00052478  00000+0  73704-3 0  9992",
        "tle_line2": "2 50621  82.5706  82.9412 0028866 183.2784 176.8286 15.55994248221198"
      },
      "geometry": {
        "type": "Point",
        "coordinates": [
          -119.79249180579791,
          70.82880298712917
        ]
      }
    }
  ]
}